start=new Date('2022-07-31T00:00:00.000Z').valueOf();
sats=[{"MEAN_MOTION_DOT":"-0.00001507","PERIOD":"95.592","MEAN_ELEMENT_THEORY":"SGP4","GP_ID":"209226805","FILE":"3525638","MEAN_MOTION":"15.06396661","REV_AT_EPOCH":"6687","TIME_SYSTEM":"UTC","PERIAPSIS":"546.303","ARG_OF_PERICENTER":"88.0780","ELEMENT_SET_NO":"999","CLASSIFICATION_TYPE":"U","LAUNCH_DATE":"2021-05-15","APOAPSIS":"548.145","RA_OF_ASC_NODE":"298.0767","CENTER_NAME":"EARTH","MEAN_MOTION_DDOT":"0.0000000000000","COUNTRY_CODE":"US","TLE_LINE2":"2 48598  53.0548 298.0767 0001330  88.0780 272.0361 15.06396661 66879","OBJECT_TYPE":"PAYLOAD","OBJECT_NAME":"STARLINK-2256","EPHEMERIS_TYPE":"0","OBJECT_ID":"2021-041AX","EPOCH":"2022-07-30T18:02:30.593472","BSTAR":"-0.00008230100000","NORAD_CAT_ID":"48598","SEMIMAJOR_AXIS":"6925.359","DECAY_DATE":null,"ECCENTRICITY":"0.00013300","TLE_LINE1":"1 48598U 21041AX  22211.75174298 -.00001507  00000-0 -82301-4 0  9996","SITE":"AFETR","RCS_SIZE":"LARGE","INCLINATION":"53.0548","MEAN_ANOMALY":"272.0361","REF_FRAME":"TEME"},{"REF_FRAME":"TEME","INCLINATION":"53.0557","MEAN_ANOMALY":"285.8575","RCS_SIZE":"LARGE","SITE":"AFETR","DECAY_DATE":null,"ECCENTRICITY":"0.00013150","TLE_LINE1":"1 48599U 21041AY  22211.91070217 -.00001093  00000-0 -54497-4 0  9996","OBJECT_ID":"2021-041AY","BSTAR":"-0.00005449700000","EPOCH":"2022-07-30T21:51:24.667488","NORAD_CAT_ID":"48599","SEMIMAJOR_AXIS":"6925.372","OBJECT_TYPE":"PAYLOAD","OBJECT_NAME":"STARLINK-2274","EPHEMERIS_TYPE":"0","TLE_LINE2":"2 48599  53.0557 272.3655 0001315  74.2559 285.8575 15.06392223 68067","COUNTRY_CODE":"US","MEAN_MOTION_DDOT":"0.0000000000000","CENTER_NAME":"EARTH","APOAPSIS":"548.148","RA_OF_ASC_NODE":"272.3655","ELEMENT_SET_NO":"999","CLASSIFICATION_TYPE":"U","LAUNCH_DATE":"2021-05-15","TIME_SYSTEM":"UTC","PERIAPSIS":"546.327","ARG_OF_PERICENTER":"74.2559","MEAN_ELEMENT_THEORY":"SGP4","PERIOD":"95.593","MEAN_MOTION_DOT":"-0.00001093","FILE":"3525638","GP_ID":"209227056","MEAN_MOTION":"15.06392223","REV_AT_EPOCH":"6806"},{"SEMIMAJOR_AXIS":"6925.341","NORAD_CAT_ID":"48600","EPOCH":"2022-07-30T14:47:26.556576","BSTAR":"0.00003500700000","OBJECT_ID":"2021-041AZ","TLE_LINE1":"1 48600U 21041AZ  22211.61627959  .00000240  00000-0  35007-4 0  9994","DECAY_DATE":null,"ECCENTRICITY":"0.00012810","SITE":"AFETR","RCS_SIZE":"LARGE","MEAN_ANOMALY":"262.0679","INCLINATION":"53.0556","REF_FRAME":"TEME","FILE":"3525638","GP_ID":"209225804","REV_AT_EPOCH":"6780","MEAN_MOTION":"15.06402385","MEAN_MOTION_DOT":"0.00000240","PERIOD":"95.592","MEAN_ELEMENT_THEORY":"SGP4","ARG_OF_PERICENTER":"98.0455","PERIAPSIS":"546.319","TIME_SYSTEM":"UTC","CLASSIFICATION_TYPE":"U","LAUNCH_DATE":"2021-05-15","ELEMENT_SET_NO":"999","RA_OF_ASC_NODE":"288.6765","APOAPSIS":"548.093","CENTER_NAME":"EARTH","COUNTRY_CODE":"US","MEAN_MOTION_DDOT":"0.0000000000000","TLE_LINE2":"2 48600  53.0556 288.6765 0001281  98.0455 262.0679 15.06402385 67806","EPHEMERIS_TYPE":"0","OBJECT_NAME":"STARLINK-2275","OBJECT_TYPE":"PAYLOAD"},{"OBJECT_ID":"2021-041BB","EPOCH":"2022-07-30T21:03:38.540160","BSTAR":"0.00000486640000","NORAD_CAT_ID":"48602","SEMIMAJOR_AXIS":"6925.377","DECAY_DATE":null,"ECCENTRICITY":"0.00015240","TLE_LINE1":"1 48602U 21041BB  22211.87752940 -.00000209  00000-0  48664-5 0  9993","SITE":"AFETR","RCS_SIZE":"LARGE","INCLINATION":"53.0545","MEAN_ANOMALY":"288.0866","REF_FRAME":"TEME","MEAN_ELEMENT_THEORY":"SGP4","PERIOD":"95.593","MEAN_MOTION_DOT":"-0.00000209","MEAN_MOTION":"15.06390671","GP_ID":"209226054","FILE":"3525638","REV_AT_EPOCH":"6804","TIME_SYSTEM":"UTC","PERIAPSIS":"546.187","ARG_OF_PERICENTER":"72.0289","ELEMENT_SET_NO":"999","LAUNCH_DATE":"2021-05-15","CLASSIFICATION_TYPE":"U","APOAPSIS":"548.298","RA_OF_ASC_NODE":"272.5169","CENTER_NAME":"EARTH","MEAN_MOTION_DDOT":"0.0000000000000","COUNTRY_CODE":"US","TLE_LINE2":"2 48602  53.0545 272.5169 0001524  72.0289 288.0866 15.06390671 68040","OBJECT_TYPE":"PAYLOAD","OBJECT_NAME":"STARLINK-2713","EPHEMERIS_TYPE":"0"},{"CENTER_NAME":"EARTH","COUNTRY_CODE":"US","MEAN_MOTION_DDOT":"0.0000000000000","TLE_LINE2":"2 48603  53.0542 267.5931 0001496  65.8263 294.2883 15.06397056 68120","OBJECT_TYPE":"PAYLOAD","OBJECT_NAME":"STARLINK-2714","EPHEMERIS_TYPE":"0","PERIOD":"95.592","MEAN_ELEMENT_THEORY":"SGP4","MEAN_MOTION_DOT":"-0.00001961","FILE":"3525638","GP_ID":"209227306","MEAN_MOTION":"15.06397056","REV_AT_EPOCH":"6812","TIME_SYSTEM":"UTC","PERIAPSIS":"546.187","ARG_OF_PERICENTER":"65.8263","ELEMENT_SET_NO":"999","CLASSIFICATION_TYPE":"U","LAUNCH_DATE":"2021-05-15","APOAPSIS":"548.259","RA_OF_ASC_NODE":"267.5931","SITE":"AFETR","RCS_SIZE":"LARGE","INCLINATION":"53.0542","MEAN_ANOMALY":"294.2883","REF_FRAME":"TEME","OBJECT_ID":"2021-041BC","EPOCH":"2022-07-30T20:33:45.007488","BSTAR":"-0.00011279000000","NORAD_CAT_ID":"48603","SEMIMAJOR_AXIS":"6925.358","DECAY_DATE":null,"ECCENTRICITY":"0.00014960","TLE_LINE1":"1 48603U 21041BC  22211.85677092 -.00001961  00000-0 -11279-3 0  9993"},{"TIME_SYSTEM":"UTC","ARG_OF_PERICENTER":"70.5714","PERIAPSIS":"546.285","MEAN_ELEMENT_THEORY":"SGP4","PERIOD":"95.592","MEAN_MOTION_DOT":"0.00000093","GP_ID":"209227557","MEAN_MOTION":"15.06402153","FILE":"3525638","REV_AT_EPOCH":"6767","RA_OF_ASC_NODE":"298.4947","APOAPSIS":"548.129","ELEMENT_SET_NO":"999","LAUNCH_DATE":"2021-05-15","CLASSIFICATION_TYPE":"U","COUNTRY_CODE":"US","MEAN_MOTION_DDOT":"0.0000000000000","CENTER_NAME":"EARTH","OBJECT_TYPE":"PAYLOAD","EPHEMERIS_TYPE":"0","OBJECT_NAME":"STARLINK-2757","TLE_LINE2":"2 48604  53.0550 298.4947 0001332  70.5714 289.5419 15.06402153 67679","DECAY_DATE":null,"ECCENTRICITY":"0.00013320","TLE_LINE1":"1 48604U 21041BD  22211.65958426  .00000093  00000-0  25165-4 0  9998","EPOCH":"2022-07-30T15:49:48.080064","BSTAR":"0.00002516500000","OBJECT_ID":"2021-041BD","SEMIMAJOR_AXIS":"6925.342","NORAD_CAT_ID":"48604","INCLINATION":"53.0550","MEAN_ANOMALY":"289.5419","SITE":"AFETR","RCS_SIZE":"LARGE","REF_FRAME":"TEME"},{"CENTER_NAME":"EARTH","COUNTRY_CODE":"US","MEAN_MOTION_DDOT":"0.0000000000000","TLE_LINE2":"2 48638  53.0550 272.5217 0001379  85.4818 274.6329 15.06385219 65159","EPHEMERIS_TYPE":"0","OBJECT_NAME":"STARLINK-2758","OBJECT_TYPE":"PAYLOAD","MEAN_MOTION":"15.06385219","GP_ID":"209226559","FILE":"3525638","REV_AT_EPOCH":"6515","PERIOD":"95.593","MEAN_ELEMENT_THEORY":"SGP4","MEAN_MOTION_DOT":"-0.00000494","ARG_OF_PERICENTER":"85.4818","PERIAPSIS":"546.304","TIME_SYSTEM":"UTC","LAUNCH_DATE":"2021-05-26","CLASSIFICATION_TYPE":"U","ELEMENT_SET_NO":"999","RA_OF_ASC_NODE":"272.5217","APOAPSIS":"548.214","SITE":"AFETR","RCS_SIZE":"LARGE","MEAN_ANOMALY":"274.6329","INCLINATION":"53.0550","REF_FRAME":"TEME","SEMIMAJOR_AXIS":"6925.394","NORAD_CAT_ID":"48638","EPOCH":"2022-07-30T21:02:17.083104","BSTAR":"-0.00001426300000","OBJECT_ID":"2021-044A","TLE_LINE1":"1 48638U 21044A   22211.87658661 -.00000494  00000-0 -14263-4 0  9994","DECAY_DATE":null,"ECCENTRICITY":"0.00013790"},{"INCLINATION":"53.0549","MEAN_ANOMALY":"290.0054","SITE":"AFETR","RCS_SIZE":"LARGE","REF_FRAME":"TEME","DECAY_DATE":null,"ECCENTRICITY":"0.00014010","TLE_LINE1":"1 48639U 21044B   22211.86183945 -.00000523  00000-0 -16211-4 0  9990","OBJECT_ID":"2021-044B","BSTAR":"-0.00001621100000","EPOCH":"2022-07-30T20:41:02.928480","NORAD_CAT_ID":"48639","SEMIMAJOR_AXIS":"6925.369","COUNTRY_CODE":"US","MEAN_MOTION_DDOT":"0.0000000000000","CENTER_NAME":"EARTH","OBJECT_TYPE":"PAYLOAD","OBJECT_NAME":"STARLINK-2739","EPHEMERIS_TYPE":"0","TLE_LINE2":"2 48639  53.0549 272.5917 0001401  70.1086 290.0054 15.06393455 65157","TIME_SYSTEM":"UTC","PERIAPSIS":"546.263","ARG_OF_PERICENTER":"70.1086","MEAN_ELEMENT_THEORY":"SGP4","PERIOD":"95.593","MEAN_MOTION_DOT":"-0.00000523","FILE":"3525638","GP_ID":"209226810","MEAN_MOTION":"15.06393455","REV_AT_EPOCH":"6515","APOAPSIS":"548.204","RA_OF_ASC_NODE":"272.5917","ELEMENT_SET_NO":"999","LAUNCH_DATE":"2021-05-26","CLASSIFICATION_TYPE":"U"},{"NORAD_CAT_ID":"48640","SEMIMAJOR_AXIS":"6925.359","OBJECT_ID":"2021-044C","EPOCH":"2022-07-30T14:09:41.082912","BSTAR":"-0.00010733000000","TLE_LINE1":"1 48640U 21044C   22211.59005883 -.00001879  00000-0 -10733-3 0  9993","DECAY_DATE":null,"ECCENTRICITY":"0.00010900","SITE":"AFETR","RCS_SIZE":"LARGE","MEAN_ANOMALY":"282.2954","INCLINATION":"53.0549","REF_FRAME":"TEME","REV_AT_EPOCH":"6510","GP_ID":"209227061","FILE":"3525638","MEAN_MOTION":"15.06396744","PERIOD":"95.592","MEAN_MOTION_DOT":"-0.00001879","MEAN_ELEMENT_THEORY":"SGP4","PERIAPSIS":"546.469","ARG_OF_PERICENTER":"77.8157","TIME_SYSTEM":"UTC","CLASSIFICATION_TYPE":"U","LAUNCH_DATE":"2021-05-26","ELEMENT_SET_NO":"999","APOAPSIS":"547.978","RA_OF_ASC_NODE":"274.0834","CENTER_NAME":"EARTH","COUNTRY_CODE":"US","MEAN_MOTION_DDOT":"0.0000000000000","TLE_LINE2":"2 48640  53.0549 274.0834 0001090  77.8157 282.2954 15.06396744 65102","OBJECT_NAME":"STARLINK-2736","EPHEMERIS_TYPE":"0","OBJECT_TYPE":"PAYLOAD"},{"DECAY_DATE":null,"ECCENTRICITY":"0.00014550","TLE_LINE1":"1 48641U 21044D   22211.60246434 -.00001543  00000-0 -84759-4 0  9993","OBJECT_ID":"2021-044D","BSTAR":"-0.00008475900000","EPOCH":"2022-07-30T14:27:32.918976","NORAD_CAT_ID":"48641","SEMIMAJOR_AXIS":"6925.369","REF_FRAME":"TEME","INCLINATION":"53.0542","MEAN_ANOMALY":"283.9939","RCS_SIZE":"LARGE","SITE":"AFETR","APOAPSIS":"548.242","RA_OF_ASC_NODE":"278.7485","ELEMENT_SET_NO":"999","CLASSIFICATION_TYPE":"U","LAUNCH_DATE":"2021-05-26","TIME_SYSTEM":"UTC","PERIAPSIS":"546.226","ARG_OF_PERICENTER":"76.1212","PERIOD":"95.593","MEAN_MOTION_DOT":"-0.00001543","MEAN_ELEMENT_THEORY":"SGP4","REV_AT_EPOCH":"6504","GP_ID":"209225809","FILE":"3525638","MEAN_MOTION":"15.06393325","OBJECT_TYPE":"PAYLOAD","OBJECT_NAME":"STARLINK-2754","EPHEMERIS_TYPE":"0","TLE_LINE2":"2 48641  53.0542 278.7485 0001455  76.1212 283.9939 15.06393325 65044","MEAN_MOTION_DDOT":"0.0000000000000","COUNTRY_CODE":"US","CENTER_NAME":"EARTH"}];
